NORAD_CAT_ID,OBJECT_NAME,OBJECT_TYPE,EPOCH,MEAN_MOTION,ECCENTRICITY,INCLINATION,RA_OF_ASC_NODE,ARG_OF_PERICENTER,MEAN_ANOMALY,BSTAR,MEAN_MOTION_DOT,MEAN_MOTION_DDOT,TLE_LINE0,TLE_LINE1,TLE_LINE2,SEMIMAJOR_AXIS,PERIOD,APOGEE,PERIGEE,DECAYED
49451.0,STARLINK-3125,PAYLOAD,2024-02-05 04:43:11,15.08837271,0.0001618,53.2171,46.5751,88.8037,271.314,1.5403e-05,-4.3e-07,0.0,0 STARLINK-3125,1 49451U 21104AV  24036.19666236 -.00000043  00000-0  15403-4 0  9990,2 49451  53.2171  46.5751 0001618  88.8037 271.3140 15.08837271124593,6917.889,95.438,540.873,538.634,0.0
49451.0,STARLINK-3125,PAYLOAD,2024-02-05 07:53:57,15.08836549,0.0001417,53.2173,45.9798,86.7827,273.3328,1.1852e-05,-9.9e-07,0.0,0 STARLINK-3125,1 49451U 21104AV  24036.32914323 -.00000099  00000-0  11852-4 0  9993,2 49451  53.2173  45.9798 0001417  86.7827 273.3328 15.08836549123530,6917.891,95.438,540.736,538.776,0.0
49451.0,STARLINK-3125,PAYLOAD,2024-02-06 09:20:07,15.08851702,0.0001524,53.218,41.2232,92.4018,267.7149,2.1694e-05,5.7e-07,0.0,0 STARLINK-3125,1 49451U 21104AV  24037.38897535  .00000057  00000-0  21694-4 0  9993,2 49451  53.2180  41.2232 0001524  92.4018 267.7149 15.08851702124778,6917.845,95.437,540.764,538.655,0.0
49451.0,STARLINK-3125,PAYLOAD,2024-02-07 04:24:46,15.08833835,0.0001495,53.2175,37.6534,93.2097,266.9066,0.00011359,1.52e-05,0.0,0 STARLINK-3125,1 49451U 21104AV  24038.18386628  .00001520  00000-0  11359-3 0  9990,2 49451  53.2175  37.6534 0001495  93.2097 266.9066 15.08833835124898,6917.899,95.438,540.798,538.73,0.0
49451.0,STARLINK-3125,PAYLOAD,2024-02-07 09:10:55,15.08829318,0.0001322,53.2184,36.7565,73.8908,286.223,0.00036985,5.601e-05,0.0,0 STARLINK-3125,1 49451U 21104AV  24038.38258263  .00005601  00000-0  36985-3 0  9991,2 49451  53.2184  36.7565 0001322  73.8908 286.2230 15.08829318123849,6917.913,95.438,540.693,538.863,0.0
49451.0,STARLINK-3125,PAYLOAD,2024-02-07 17:07:51,15.08834578,0.0001458,53.2172,35.2732,79.1897,280.9259,0.00010458,1.377e-05,0.0,0 STARLINK-3125,1 49451U 21104AV  24038.71378814  .00001377  00000-0  10458-3 0  9996,2 49451  53.2172  35.2732 0001458  79.1897 280.9259 15.08834578123893,6917.897,95.438,540.771,538.753,0.0
49451.0,STARLINK-3125,PAYLOAD,2024-02-08 05:50:56,15.08843044,0.0001456,53.2172,32.8942,95.9572,264.1586,4.9619e-05,5.02e-06,0.0,0 STARLINK-3125,1 49451U 21104AV  24039.24370587  .00000502  00000-0  49619-4 0  9995,2 49451  53.2172  32.8942 0001456  95.9572 264.1586 15.08843044125058,6917.871,95.437,540.743,538.729,0.0
49451.0,STARLINK-3125,PAYLOAD,2024-02-09 05:41:43,15.08849029,0.0001351,53.2157,28.4339,93.7917,266.3229,0.00013675,1.89e-05,0.0,0 STARLINK-3125,1 49451U 21104AV  24040.23730398  .00001890  00000-0  13675-3 0  9999,2 49451  53.2157  28.4339 0001351  93.7917 266.3229 15.08849029124129,6917.853,95.437,540.652,538.783,0.0
49451.0,STARLINK-3125,PAYLOAD,2024-02-10 03:57:07,15.08834585,0.0001731,53.2182,24.2714,120.8022,239.3141,0.00013937,1.93e-05,0.0,0 STARLINK-3125,1 49451U 21104AV  24041.16467103  .00001930  00000-0  13937-3 0  9999,2 49451  53.2182  24.2714 0001731 120.8022 239.3141 15.08834585125348,6917.897,95.438,540.959,538.564,0.0
49451.0,STARLINK-3125,PAYLOAD,2024-02-10 05:32:30,15.0884163,0.0001505,53.2182,23.975,101.7715,258.3446,9.8059e-05,1.273e-05,0.0,0 STARLINK-3125,1 49451U 21104AV  24041.23090920  .00001273  00000-0  98059-4 0  9995,2 49451  53.2182  23.9750 0001505 101.7715 258.3446 15.08841630124279,6917.875,95.437,540.782,538.699,0.0
49451.0,STARLINK-3125,PAYLOAD,2024-02-10 23:01:45,15.08840498,0.0001509,53.2182,20.7033,103.0492,257.0669,6.7664e-05,7.89e-06,0.0,0 STARLINK-3125,1 49451U 21104AV  24041.95955124  .00000789  00000-0  67664-4 0  9999,2 49451  53.2182  20.7033 0001509 103.0492 257.0669 15.08840498124385,6917.879,95.438,540.788,538.7,0.0
49451.0,STARLINK-3125,PAYLOAD,2024-02-11 03:47:54,15.08844393,0.0001489,53.2189,19.8113,102.6331,257.4828,7.5143e-05,9.08e-06,0.0,0 STARLINK-3125,1 49451U 21104AV  24042.15826908  .00000908  00000-0  75143-4 0  9993,2 49451  53.2189  19.8113 0001489 102.6331 257.4828 15.08844393124417,6917.867,95.437,540.762,538.702,0.0
49451.0,STARLINK-3125,PAYLOAD,2024-02-11 22:52:32,15.08841836,0.0001436,53.219,16.2431,96.6315,263.484,0.00011934,1.612e-05,0.0,0 STARLINK-3125,1 49451U 21104AV  24042.95314974  .00001612  00000-0  11934-3 0  9996,2 49451  53.2190  16.2431 0001436  96.6315 263.4840 15.08841836124532,6917.875,95.437,540.733,538.746,0.0
49451.0,STARLINK-3125,PAYLOAD,2024-02-12 03:38:41,15.08849391,0.0001439,53.2183,15.3509,91.2363,268.8794,0.00019807,2.867e-05,0.0,0 STARLINK-3125,1 49451U 21104AV  24043.15186542  .00002867  00000-0  19807-3 0  9997,2 49451  53.2183  15.3509 0001439  91.2363 268.8794 15.08849391125641,6917.852,95.437,540.712,538.721,0.0
49451.0,STARLINK-3125,PAYLOAD,2024-02-12 05:14:04,15.08853527,0.0001533,53.2189,15.0535,97.8254,262.2912,0.0002618,3.883e-05,0.0,0 STARLINK-3125,1 49451U 21104AV  24043.21810342  .00003883  00000-0  26180-3 0  9997,2 49451  53.2189  15.0535 0001533  97.8254 262.2912 15.08853527124576,6917.839,95.437,540.765,538.644,0.0
49451.0,STARLINK-3125,PAYLOAD,2024-02-12 22:43:20,15.08827514,0.0001565,53.219,11.7827,94.9792,265.1379,-0.00010302,-1.927e-05,0.0,0 STARLINK-3125,1 49451U 21104AV  24043.94675984 -.00001927  00000-0 -10302-3 0  9996,2 49451  53.2190  11.7827 0001565  94.9792 265.1379 15.08827514124683,6917.919,95.438,540.866,538.701,0.0
49451.0,STARLINK-3125,PAYLOAD,2024-02-13 03:29:29,15.08824441,0.0001502,53.2184,10.8912,117.4308,242.6837,-0.00014127,-2.535e-05,0.0,0 STARLINK-3125,1 49451U 21104AV  24044.14548253 -.00002535  00000-0 -14127-3 0  9992,2 49451  53.2184  10.8912 0001502 117.4308 242.6837 15.08824441125794,6917.928,95.439,540.832,538.754,0.0
49451.0,STARLINK-3125,PAYLOAD,2024-02-13 14:37:11,15.08831326,0.0001136,53.2171,8.8094,97.5819,262.5302,3.2512e-05,2.3e-06,0.0,0 STARLINK-3125,1 49451U 21104AV  24044.60916388  .00000230  00000-0  32512-4 0  9998,2 49451  53.2171   8.8094 0001136  97.5819 262.5302 15.08831326124782,6917.907,95.438,540.558,538.986,0.0
49451.0,STARLINK-3125,PAYLOAD,2024-02-14 04:55:38,15.0886443,0.0001496,53.2187,6.1286,94.3413,265.775,0.00042074,6.419e-05,0.0,0 STARLINK-3125,1 49451U 21104AV  24045.20530694  .00006419  00000-0  42074-3 0  9995,2 49451  53.2187   6.1286 0001496  94.3413 265.7750 15.08864430125951,6917.806,95.436,540.706,538.636,0.0
49451.0,STARLINK-3125,PAYLOAD,2024-02-14 14:27:58,15.08849579,0.0001485,53.2188,4.3477,101.6762,258.4397,0.00039955,6.078e-05,0.0,0 STARLINK-3125,1 49451U 21104AV  24045.60275518  .00006078  00000-0  39955-3 0  9995,2 49451  53.2188   4.3477 0001485 101.6762 258.4397 15.08849579124931,6917.851,95.437,540.743,538.689,0.0
49451.0,STARLINK-3125,PAYLOAD,2024-02-15 03:11:03,15.08838501,8.57e-05,53.2158,1.9702,110.2364,249.8721,0.00018261,2.62e-05,0.0,0 STARLINK-3125,1 49451U 21104AV  24046.13268103  .00002620  00000-0  18261-3 0  9992,2 49451  53.2158   1.9702 0000857 110.2364 249.8721 15.08838501126095,6917.885,95.438,540.343,539.157,0.0
49451.0,STARLINK-3125,PAYLOAD,2024-02-15 20:40:17,15.08841978,0.0001778,53.2189,358.6982,99.3688,260.7506,-0.00011353,-2.095e-05,0.0,0 STARLINK-3125,1 49451U 21104AV  24046.86131919 -.00002095  00000-0 -11353-3 0  9999,2 49451  53.2189 358.6982 0001778  99.3688 260.7506 15.08841978125128,6917.874,95.437,540.969,538.509,0.0
49451.0,STARLINK-3125,PAYLOAD,2024-02-16 06:12:36,15.08849661,0.000167,53.218,356.912,111.9591,248.1579,9.544e-05,1.232e-05,0.0,0 STARLINK-3125,1 49451U 21104AV  24047.25875460  .00001232  00000-0  95440-4 0  9999,2 49451  53.2180 356.9120 0001670 111.9591 248.1579 15.08849661126262,6917.851,95.437,540.871,538.561,0.0
49451.0,STARLINK-3125,PAYLOAD,2024-02-16 14:09:32,15.08839664,0.0001425,53.2172,355.4276,82.4486,277.6668,3.4259e-05,2.57e-06,0.0,0 STARLINK-3125,1 49451U 21104AV  24047.58995831  .00000257  00000-0  34259-4 0  9997,2 49451  53.2172 355.4276 0001425  82.4486 277.6668 15.08839664125236,6917.881,95.438,540.732,538.761,0.0
49451.0,STARLINK-3125,PAYLOAD,2024-02-16 20:31:05,15.08839645,0.0001419,53.2146,354.2381,96.5078,263.6075,0.00018859,2.715e-05,0.0,0 STARLINK-3125,1 49451U 21104AV  24047.85492094  .00002715  00000-0  18859-3 0  9998,2 49451  53.2146 354.2381 0001419  96.5078 263.6075 15.08839645126357,6917.881,95.438,540.728,538.765,0.0
49451.0,STARLINK-3125,PAYLOAD,2024-02-17 06:03:23,15.08854914,0.0001582,53.2174,352.452,105.1833,254.9334,0.00051054,7.85e-05,0.0,0 STARLINK-3125,1 49451U 21104AV  24048.25235576  .00007850  00000-0  51054-3 0  9992,2 49451  53.2174 352.4520 0001582 105.1833 254.9334 15.08854914126414,6917.835,95.437,540.794,538.605,0.0
49451.0,STARLINK-3125,PAYLOAD,2024-02-17 20:21:52,15.08841583,0.0001367,53.218,349.7754,95.692,264.4228,0.00017229,2.455e-05,0.0,0 STARLINK-3125,1 49451U 21104AV  24048.84852078  .00002455  00000-0  17229-3 0  9991,2 49451  53.2180 349.7754 0001367  95.6920 264.4228 15.08841583126506,6917.876,95.437,540.686,538.795,0.0
49451.0,STARLINK-3125,PAYLOAD,2024-02-18 02:43:24,15.08855042,0.0001403,53.2179,348.5868,77.7577,282.3572,0.00071644,0.00011137,0.0,0 STARLINK-3125,1 49451U 21104AV  24049.11347827  .00011137  00000-0  71644-3 0  9991,2 49451  53.2179 348.5868 0001403  77.7577 282.3572 15.08855042126547,6917.834,95.437,540.67,538.729,0.0
49451.0,STARLINK-3125,PAYLOAD,2024-02-18 05:54:10,15.08861639,0.0001437,53.2181,347.9919,79.1153,281.0001,0.0010386,0.0001629,0.0,0 STARLINK-3125,1 49451U 21104AV  24049.24595693  .00016290  00000-0  10386-2 0  9991,2 49451  53.2181 347.9919 0001437  79.1153 281.0001 15.08861639125487,6917.814,95.436,540.673,538.685,0.0
49451.0,STARLINK-3125,PAYLOAD,2024-02-18 20:12:39,15.08848895,0.0001154,53.2179,345.3162,92.4018,267.7106,0.00099495,0.00015586,0.0,0 STARLINK-3125,1 49451U 21104AV  24049.84211812  .00015586  00000-0  99495-3 0  9991,2 49451  53.2179 345.3162 0001154  92.4018 267.7106 15.08848895126656,6917.853,95.437,540.517,538.92,0.0
